ONEWEB-0056             
1 45159U 20008AE  24354.94094131  .00000487  00000+0  13582-2 0  9992
2 45159  87.8896 144.6689 0001557  94.1613 265.9692 13.10376040237660
ONEWEB-0057             
1 45160U 20008AF  24355.10027005  .00000449  00000+0  12497-2 0  9991
2 45160  87.8897 144.6443 0001516  92.7517 267.3784 13.10381005237589
ONEWEB-0058             
1 45161U 20008AG  24354.85806867  .00000152  00000+0  39896-3 0  9998
2 45161  87.8891 144.7161 0001359  96.6601 263.4681 13.10376311237132
ONEWEB-0059             
1 45162U 20008AH  24354.85459139 -.00000054  00000+0 -18955-3 0  9991
2 45162  87.8898 144.7055 0001339  99.0379 261.0900 13.10377979237037
ONEWEB-0062             
1 45163U 20008AJ  24354.80482488  .00000635  00000+0  17815-2 0  9996
2 45163  87.8893 144.6983 0001405 111.3429 248.7848 13.10372357236891
ONEWEB-0065             
1 45164U 20008AK  24354.93593524  .00000248  00000+0  67333-3 0  9996
2 45164  87.8902 144.6864 0001612  92.6064 267.5248 13.10378544237345
ONEWEB-0066             
1 45424U 20020A   24354.84553823  .00000353  00000+0  95905-3 0  9990
2 45424  87.8898 129.5348 0001275  85.2250 274.9024 13.11415785231334
ONEWEB-0067             
1 45425U 20020B   24354.80667862 -.00000223  00000+0 -66364-3 0  9991
2 45425  87.8888 129.4806 0001495  91.8033 268.3266 13.11418287231388
